{"type": "FeatureCollection", "features": [ {"type": "Feature", "properties": {"norad_id": 35663, "name": "COSMOS 2251 DEB", "group": "cosmos-2251-debris", "lat": 7.017529861873548, "lon": -80.88272094597266, "alt_km": 672.0292055160289, "timestamp": "2025-12-24T22:42:22.430582+00:00", "meta": {"OBJECT_NAME": "COSMOS 2251 DEB", "OBJECT_ID": "1993-036APE", "EPOCH": "2025-12-19T23:59:07.553472", "MEAN_MOTION": 14.65779868, "ECCENTRICITY": 0.00057705, "INCLINATION": 74.0195, "RA_OF_ASC_NODE": 110.6712, "ARG_OF_PERICENTER": 187.908, "MEAN_ANOMALY": 172.1999, "EPHEMERIS_TYPE": 0, "CLASSIFICATION_TYPE": "U", "NORAD_CAT_ID": 35663, "ELEMENT_SET_NO": 999, "REV_AT_EPOCH": 73488, "BSTAR": 0.0009843987, "MEAN_MOTION_DOT": 5.342e-05, "MEAN_MOTION_DDOT": 0}, "tle": {"line1": "1 35663U 93036APE 25353.99939298  .00005342  00000+0  98440-3 0  9991", "line2": "2 35663  74.0195 110.6712 0005770 187.9080 172.1999 14.65779868734880"}}, "geometry": {"type": "Point", "coordinates": [-80.88272094597266, 7.017529861873548]}}, {"type": "Feature", "properties": {"norad_id": 35667, "name": "COSMOS 2251 DEB", "group": "cosmos-2251-debris", "lat": -27.266998135849498, "lon": 108.36907099400784, "alt_km": 710.3149859255182, "timestamp": "2025-12-24T22:42:22.430592+00:00", "meta": {"OBJECT_NAME": "COSMOS 2251 DEB", "OBJECT_ID": "1993-036APJ", "EPOCH": "2025-12-24T01:27:36.306432", "MEAN_MOTION": 14.60135213, "ECCENTRICITY": 0.00189616, "INCLINATION": 74.0566, "RA_OF_ASC_NODE": 118.5285, "ARG_OF_PERICENTER": 178.1022, "MEAN_ANOMALY": 182.022, "EPHEMERIS_TYPE": 0, "CLASSIFICATION_TYPE": "U", "NORAD_CAT_ID": 35667, "ELEMENT_SET_NO": 999, "REV_AT_EPOCH": 70968, "BSTAR": 0.0011760154, "MEAN_MOTION_DOT": 5.65e-05, "MEAN_MOTION_DDOT": 0}, "tle": {"line1": "1 35667U 93036APJ 25358.06083688  .00005650  00000+0  11760-2 0  9992", "line2": "2 35667  74.0566 118.5285 0018961 178.1022 182.0220 14.60135213709684"}}, "geometry": {"type": "Point", "coordinates": [108.36907099400784, -27.266998135849498]}}, {"type": "Feature", "properties": {"norad_id": 35668, "name": "COSMOS 2251 DEB", "group": "cosmos-2251-debris", "lat": -69.5673817316238, "lon": 67.26679611675964, "alt_km": 643.356231683978, "timestamp": "2025-12-24T22:42:22.430602+00:00", "meta": {"OBJECT_NAME": "COSMOS 2251 DEB", "OBJECT_ID": "1993-036APK", "EPOCH": "2025-12-22T20:19:44.665536", "MEAN_MOTION": 14.64012631, "ECCENTRICITY": 0.00834744, "INCLINATION": 74.0435, "RA_OF_ASC_NODE": 201.1204, "ARG_OF_PERICENTER": 303.9245, "MEAN_ANOMALY": 55.4004, "EPHEMERIS_TYPE": 0, "CLASSIFICATION_TYPE": "U", "NORAD_CAT_ID": 35668, "ELEMENT_SET_NO": 999, "REV_AT_EPOCH": 87795, "BSTAR": 0.0001903257, "MEAN_MOTION_DOT": 1.015e-05, "MEAN_MOTION_DDOT": 0}, "tle": {"line1": "1 35668U 93036APK 25356.84704474  .00001015  00000+0  19033-3 0  9993", "line2": "2 35668  74.0435 201.1204 0083474 303.9245  55.4004 14.64012631877957"}}, "geometry": {"type": "Point", "coordinates": [67.26679611675964, -69.5673817316238]}}, {"type": "Feature", "properties": {"norad_id": 35669, "name": "COSMOS 2251 DEB", "group": "cosmos-2251-debris", "lat": -42.033548657359134, "lon": -25.387564185579993, "alt_km": 789.4552432098171, "timestamp": "2025-12-24T22:42:22.430613+00:00", "meta": {"OBJECT_NAME": "COSMOS 2251 DEB", "OBJECT_ID": "1993-036APL", "EPOCH": "2025-12-20T02:35:15.805248", "MEAN_MOTION": 13.57168765, "ECCENTRICITY": 0.03877863, "INCLINATION": 73.8603, "RA_OF_ASC_NODE": 147.3718, "ARG_OF_PERICENTER": 257.91, "MEAN_ANOMALY": 97.8317, "EPHEMERIS_TYPE": 0, "CLASSIFICATION_TYPE": "U", "NORAD_CAT_ID": 35669, "ELEMENT_SET_NO": 999, "REV_AT_EPOCH": 60889, "BSTAR": 0.00066721827, "MEAN_MOTION_DOT": 7.5e-06, "MEAN_MOTION_DDOT": 0}, "tle": {"line1": "1 35669U 93036APL 25354.10782182  .00000750  00000+0  66722-3 0  9995", "line2": "2 35669  73.8603 147.3718 0387786 257.9100  97.8317 13.57168765608897"}}, "geometry": {"type": "Point", "coordinates": [-25.387564185579993, -42.033548657359134]}}, {"type": "Feature", "properties": {"norad_id": 35670, "name": "COSMOS 2251 DEB", "group": "cosmos-2251-debris", "lat": 61.01617599267562, "lon": 71.1384635385022, "alt_km": 568.4975368278174, "timestamp": "2025-12-24T22:42:22.430623+00:00", "meta": {"OBJECT_NAME": "COSMOS 2251 DEB", "OBJECT_ID": "1993-036APM", "EPOCH": "2025-12-22T20:36:05.670144", "MEAN_MOTION": 14.94150162, "ECCENTRICITY": 0.0038413, "INCLINATION": 73.8936, "RA_OF_ASC_NODE": 43.936, "ARG_OF_PERICENTER": 2.2242, "MEAN_ANOMALY": 357.9104, "EPHEMERIS_TYPE": 0, "CLASSIFICATION_TYPE": "U", "NORAD_CAT_ID": 35670, "ELEMENT_SET_NO": 999, "REV_AT_EPOCH": 87878, "BSTAR": 0.0012423, "MEAN_MOTION_DOT": 0.00013477, "MEAN_MOTION_DDOT": 0}, "tle": {"line1": "1 35670U 93036APM 25356.85839896  .00013477  00000+0  12423-2 0  9994", "line2": "2 35670  73.8936  43.9360 0038413   2.2242 357.9104 14.94150162878785"}}, "geometry": {"type": "Point", "coordinates": [71.1384635385022, 61.01617599267562]}}, {"type": "Feature", "properties": {"norad_id": 35671, "name": "COSMOS 2251 DEB", "group": "cosmos-2251-debris", "lat": -58.47135859347032, "lon": 28.583733974650702, "alt_km": 727.432111755319, "timestamp": "2025-12-24T22:42:22.430633+00:00", "meta": {"OBJECT_NAME": "COSMOS 2251 DEB", "OBJECT_ID": "1993-036APN", "EPOCH": "2025-12-17T12:02:51.877248", "MEAN_MOTION": 14.48356669, "ECCENTRICITY": 0.00414327, "INCLINATION": 74.0178, "RA_OF_ASC_NODE": 70.3857, "ARG_OF_PERICENTER": 243.6268, "MEAN_ANOMALY": 134.9759, "EPHEMERIS_TYPE": 0, "CLASSIFICATION_TYPE": "U", "NORAD_CAT_ID": 35671, "ELEMENT_SET_NO": 999, "REV_AT_EPOCH": 86832, "BSTAR": 0.00018080216, "MEAN_MOTION_DOT": 6.55e-06, "MEAN_MOTION_DDOT": 0}, "tle": {"line1": "1 35671U 93036APN 25351.50198932  .00000655  00000+0  18080-3 0  9991", "line2": "2 35671  74.0178  70.3857 0041432 243.6268 134.9759 14.48356669868323"}}, "geometry": {"type": "Point", "coordinates": [28.583733974650702, -58.47135859347032]}}, {"type": "Feature", "properties": {"norad_id": 35674, "name": "COSMOS 2251 DEB", "group": "cosmos-2251-debris", "lat": 68.08421531780573, "lon": -21.2789059176294, "alt_km": 714.8725289570721, "timestamp": "2025-12-24T22:42:22.430644+00:00", "meta": {"OBJECT_NAME": "COSMOS 2251 DEB", "OBJECT_ID": "1993-036APR", "EPOCH": "2025-12-24T05:51:29.585088", "MEAN_MOTION": 14.54380391, "ECCENTRICITY": 0.00963056, "INCLINATION": 74.0609, "RA_OF_ASC_NODE": 294.7835, "ARG_OF_PERICENTER": 336.904, "MEAN_ANOMALY": 22.7806, "EPHEMERIS_TYPE": 0, "CLASSIFICATION_TYPE": "U", "NORAD_CAT_ID": 35674, "ELEMENT_SET_NO": 999, "REV_AT_EPOCH": 86278, "BSTAR": 0.001949163, "MEAN_MOTION_DOT": 8.793e-05, "MEAN_MOTION_DDOT": 0}, "tle": {"line1": "1 35674U 93036APR 25358.24409242  .00008793  00000+0  19492-2 0  9999", "line2": "2 35674  74.0609 294.7835 0096305 336.9040  22.7806 14.54380391862783"}}, "geometry": {"type": "Point", "coordinates": [-21.2789059176294, 68.08421531780573]}}, {"type": "Feature", "properties": {"norad_id": 35701, "name": "COSMOS 2251 DEB", "group": "cosmos-2251-debris", "lat": 29.39839758572985, "lon": -68.84269167321078, "alt_km": 980.670763118399, "timestamp": "2025-12-24T22:42:22.430654+00:00", "meta": {"OBJECT_NAME": "COSMOS 2251 DEB", "OBJECT_ID": "1993-036APW", "EPOCH": "2025-12-23T03:05:16.939392", "MEAN_MOTION": 13.80906206, "ECCENTRICITY": 0.0288749, "INCLINATION": 74.0066, "RA_OF_ASC_NODE": 284.9129, "ARG_OF_PERICENTER": 131.8115, "MEAN_ANOMALY": 230.8064, "EPHEMERIS_TYPE": 0, "CLASSIFICATION_TYPE": "U", "NORAD_CAT_ID": 35701, "ELEMENT_SET_NO": 999, "REV_AT_EPOCH": 62302, "BSTAR": 0.0013474955, "MEAN_MOTION_DOT": 1.927e-05, "MEAN_MOTION_DDOT": 0}, "tle": {"line1": "1 35701U 93036APW 25357.12866828  .00001927  00000+0  13475-2 0  9990", "line2": "2 35701  74.0066 284.9129 0288749 131.8115 230.8064 13.80906206623025"}}, "geometry": {"type": "Point", "coordinates": [-68.84269167321078, 29.39839758572985]}}, {"type": "Feature", "properties": {"norad_id": 35703, "name": "COSMOS 2251 DEB", "group": "cosmos-2251-debris", "lat": -1.2667814647124516, "lon": -161.30566113420903, "alt_km": 604.3553063676145, "timestamp": "2025-12-24T22:42:22.430664+00:00", "meta": {"OBJECT_NAME": "COSMOS 2251 DEB", "OBJECT_ID": "1993-036APY", "EPOCH": "2025-12-23T18:31:02.032320", "MEAN_MOTION": 14.90473978, "ECCENTRICITY": 0.00644211, "INCLINATION": 74.0416, "RA_OF_ASC_NODE": 20.682, "ARG_OF_PERICENTER": 86.9759, "MEAN_ANOMALY": 273.8792, "EPHEMERIS_TYPE": 0, "CLASSIFICATION_TYPE": "U", "NORAD_CAT_ID": 35703, "ELEMENT_SET_NO": 999, "REV_AT_EPOCH": 66780, "BSTAR": 0.00060094719, "MEAN_MOTION_DOT": 6.067e-05, "MEAN_MOTION_DDOT": 0}, "tle": {"line1": "1 35703U 93036APY 25357.77155130  .00006067  00000+0  60095-3 0  9991", "line2": "2 35703  74.0416  20.6820 0064421  86.9759 273.8792 14.90473978667808"}}, "geometry": {"type": "Point", "coordinates": [-161.30566113420903, -1.2667814647124516]}}, {"type": "Feature", "properties": {"norad_id": 35705, "name": "COSMOS 2251 DEB", "group": "cosmos-2251-debris", "lat": -66.91335422610621, "lon": -26.21932837056827, "alt_km": 682.1511560175823, "timestamp": "2025-12-24T22:42:22.430674+00:00", "meta": {"OBJECT_NAME": "COSMOS 2251 DEB", "OBJECT_ID": "1993-036AQA", "EPOCH": "2025-12-21T00:37:19.012800", "MEAN_MOTION": 14.72474593, "ECCENTRICITY": 0.00333276, "INCLINATION": 74.2752, "RA_OF_ASC_NODE": 119.9236, "ARG_OF_PERICENTER": 64.9174, "MEAN_ANOMALY": 295.5452, "EPHEMERIS_TYPE": 0, "CLASSIFICATION_TYPE": "U", "NORAD_CAT_ID": 35705, "ELEMENT_SET_NO": 999, "REV_AT_EPOCH": 86048, "BSTAR": 0.0022061245, "MEAN_MOTION_DOT": 0.00014123, "MEAN_MOTION_DDOT": 0}, "tle": {"line1": "1 35705U 93036AQA 25355.02591450  .00014123  00000+0  22061-2 0  9990", "line2": "2 35705  74.2752 119.9236 0033327  64.9174 295.5452 14.72474593860483"}}, "geometry": {"type": "Point", "coordinates": [-26.21932837056827, -66.91335422610621]}}]}